NORAD_CAT_ID,OBJECT_NAME,OBJECT_TYPE,EPOCH,MEAN_MOTION,ECCENTRICITY,INCLINATION,RA_OF_ASC_NODE,ARG_OF_PERICENTER,MEAN_ANOMALY,BSTAR,MEAN_MOTION_DOT,MEAN_MOTION_DDOT,TLE_LINE0,TLE_LINE1,TLE_LINE2,SEMIMAJOR_AXIS,PERIOD,APOGEE,PERIGEE,DECAYED
55782.0,STARLINK-5826,PAYLOAD,2023-07-11 06:53:15,15.69929845,0.0003596,69.9976,151.0182,265.0012,95.0773,4.9377e-06,3.81e-06,0.0,0 STARLINK-5826,1 55782U 23028AT  23192.28698849  .00000381  00000-0  49377-5 0  9990,2 55782  69.9976 151.0182 0003596 265.0012  95.0773 15.69929845 21004,6737.235,91.724,361.522,356.677,0.0
55782.0,STARLINK-5826,PAYLOAD,2023-07-13 06:17:35,15.69924771,0.0003441,69.9978,145.4643,262.997,97.0834,4.3698e-06,3.13e-06,0.0,0 STARLINK-5826,1 55782U 23028AT  23194.26221249  .00000313  00000-0  43698-5 0  9991,2 55782  69.9978 145.4643 0003441 262.9970  97.0834 15.69924771 21310,6737.249,91.724,361.433,356.796,0.0
55782.0,STARLINK-5826,PAYLOAD,2023-07-14 06:45:38,15.69909893,0.0003376,69.9991,142.5993,265.8836,94.1974,-5.5658e-06,-8.81e-06,0.0,0 STARLINK-5826,1 55782U 23028AT  23195.28169216 -.00000881  00000-0 -55658-5 0  9990,2 55782  69.9991 142.5993 0003376 265.8836  94.1974 15.69909893 21479,6737.292,91.725,361.431,356.882,0.0
55782.0,STARLINK-5826,PAYLOAD,2023-07-15 02:38:23,15.6992672,0.0003486,69.9985,140.2726,256.7994,103.2813,9.9522e-06,9.84e-06,0.0,0 STARLINK-5826,1 55782U 23028AT  23196.10999560  .00000984  00000-0  99522-5 0  9995,2 55782  69.9985 140.2726 0003486 256.7994 103.2813 15.69926720 21604,6737.244,91.724,361.457,356.76,0.0
55782.0,STARLINK-5826,PAYLOAD,2023-07-15 22:31:11,15.69924192,0.0003515,69.9976,137.9413,265.0456,95.0339,-1.9159e-05,-2.516e-05,0.0,0 STARLINK-5826,1 55782U 23028AT  23196.93832227 -.00002516  00000-0 -19159-4 0  9994,2 55782  69.9976 137.9413 0003515 265.0456  95.0339 15.69924192 21735,6737.251,91.724,361.484,356.748,0.0
55782.0,STARLINK-5826,PAYLOAD,2023-07-16 06:09:56,15.69929955,0.0003422,69.9976,137.045,263.3892,96.6914,-9.2275e-06,-1.322e-05,0.0,0 STARLINK-5826,1 55782U 23028AT  23197.25689935 -.00001322  00000-0 -92275-5 0  9991,2 55782  69.9976 137.0450 0003422 263.3892  96.6914 15.69929955 21782,6737.234,91.724,361.405,356.794,0.0
55782.0,STARLINK-5826,PAYLOAD,2023-07-17 12:45:00,15.69899447,0.0003787,69.998,133.4637,259.8701,100.2067,-1.0218e-05,-1.44e-05,0.0,0 STARLINK-5826,1 55782U 23028AT  23198.53125241 -.00001440  00000-0 -10218-4 0  9995,2 55782  69.9980 133.4637 0003787 259.8701 100.2067 15.69899447 21982,6737.322,91.726,361.738,356.635,0.0
55782.0,STARLINK-5826,PAYLOAD,2023-07-17 23:27:14,15.69927509,0.0003025,69.9994,132.2089,258.9699,101.1157,3.0039e-05,3.401e-05,0.0,0 STARLINK-5826,1 55782U 23028AT  23198.97724726  .00003401  00000-0  30039-4 0  9996,2 55782  69.9994 132.2089 0003025 258.9699 101.1157 15.69927509 22056,6737.241,91.724,361.144,357.068,0.0
55782.0,STARLINK-5826,PAYLOAD,2023-07-18 05:34:14,15.6993469,0.0003145,69.9987,131.4905,270.9132,89.1704,3.5508e-05,4.061e-05,0.0,0 STARLINK-5826,1 55782U 23028AT  23199.23210769  .00004061  00000-0  35508-4 0  9992,2 55782  69.9987 131.4905 0003145 270.9132  89.1704 15.69934690 22091,6737.221,91.724,361.205,356.967,0.0
55782.0,STARLINK-5826,PAYLOAD,2023-07-19 06:02:17,15.6992256,0.0003201,69.9982,128.6262,266.7169,93.3661,-1.0759e-05,-1.506e-05,0.0,0 STARLINK-5826,1 55782U 23028AT  23200.25159127 -.00001506  00000-0 -10759-4 0  9991,2 55782  69.9982 128.6262 0003201 266.7169  93.3661 15.69922560 22256,6737.256,91.724,361.277,356.964,0.0
55782.0,STARLINK-5826,PAYLOAD,2023-07-20 04:58:33,15.69937485,0.0003563,69.9983,125.9389,269.7253,90.3534,-5.9227e-06,-9.25e-06,0.0,0 STARLINK-5826,1 55782U 23028AT  23201.20732975 -.00000925  00000-0 -59227-5 0  9993,2 55782  69.9983 125.9389 0003563 269.7253  90.3534 15.69937485 22400,6737.213,91.723,361.478,356.677,0.0
55782.0,STARLINK-5826,PAYLOAD,2023-07-21 05:26:35,15.69921844,0.000313,69.9986,123.0724,262.8769,97.2071,2.0162e-05,2.212e-05,0.0,0 STARLINK-5826,1 55782U 23028AT  23202.22680499  .00002212  00000-0  20162-4 0  9993,2 55782  69.9986 123.0724 0003130 262.8769  97.2071 15.69921844 22562,6737.258,91.724,361.231,357.014,0.0
55782.0,STARLINK-5826,PAYLOAD,2023-07-24 03:47:11,15.69921298,0.0003666,69.9988,114.8331,267.5325,92.5451,1.6186e-05,1.734e-05,0.0,0 STARLINK-5826,1 55782U 23028AT  23205.15777289  .00001734  00000-0  16186-4 0  9991,2 55782  69.9988 114.8331 0003666 267.5325  92.5451 15.69921298 23025,6737.259,91.724,361.594,356.654,0.0
55782.0,STARLINK-5826,PAYLOAD,2023-07-25 04:15:12,15.69938833,0.0003745,69.9987,111.9653,263.0996,96.9773,2.0415e-05,2.244e-05,0.0,0 STARLINK-5826,1 55782U 23028AT  23206.17722281  .00002244  00000-0  20415-4 0  9993,2 55782  69.9987 111.9653 0003745 263.0996  96.9773 15.69938833 23187,6737.209,91.723,361.597,356.551,0.0
55782.0,STARLINK-5826,PAYLOAD,2023-07-26 03:11:30,15.69918546,0.0003013,70.0001,109.28,274.9092,85.176,-3.3806e-06,-6.19e-06,0.0,0 STARLINK-5826,1 55782U 23028AT  23207.13299692 -.00000619  00000-0 -33806-5 0  9990,2 55782  70.0001 109.2800 0003013 274.9092  85.1760 15.69918546 23339,6737.267,91.725,361.162,357.102,0.0
55782.0,STARLINK-5826,PAYLOAD,2023-07-26 16:57:16,15.69915173,0.0003334,69.9978,107.6664,272.6798,87.4016,2.6567e-05,2.982e-05,0.0,0 STARLINK-5826,1 55782U 23028AT  23207.70643725  .00002982  00000-0  26567-4 0  9991,2 55782  69.9978 107.6664 0003334 272.6798  87.4016 15.69915173 23425,6737.277,91.725,361.388,356.895,0.0
55782.0,STARLINK-5826,PAYLOAD,2023-07-27 03:39:32,15.69909002,0.00039,69.9996,106.4129,264.8096,95.2655,1.4295e-05,1.505e-05,0.0,0 STARLINK-5826,1 55782U 23028AT  23208.15246405  .00001505  00000-0  14295-4 0  9990,2 55782  69.9996 106.4129 0003900 264.8096  95.2655 15.69909002 23498,6737.294,91.725,361.787,356.532,0.0
55782.0,STARLINK-5826,PAYLOAD,2023-07-28 02:35:49,15.6992746,0.0003661,69.9955,103.7261,262.5011,97.5769,1.1643e-05,1.187e-05,0.0,0 STARLINK-5826,1 55782U 23028AT  23209.10820883  .00001187  00000-0  11643-4 0  9994,2 55782  69.9955 103.7261 0003661 262.5011  97.5769 15.69927460 23642,6737.242,91.724,361.573,356.64,0.0
55782.0,STARLINK-5826,PAYLOAD,2023-07-28 16:21:35,15.69916905,0.0003993,69.9964,102.1133,259.3721,100.7026,1.8984e-05,2.07e-05,0.0,0 STARLINK-5826,1 55782U 23028AT  23209.68166488  .00002070  00000-0  18984-4 0  9998,2 55782  69.9964 102.1133 0003993 259.3721 100.7026 15.69916905 23738,6737.272,91.725,361.827,356.447,0.0
55782.0,STARLINK-5826,PAYLOAD,2023-07-29 01:32:06,15.69924063,0.0003538,69.9958,101.0395,262.2312,97.8482,3.0472e-05,3.453e-05,0.0,0 STARLINK-5826,1 55782U 23028AT  23210.06396107  .00003453  00000-0  30472-4 0  9997,2 55782  69.9958 101.0395 0003538 262.2312  97.8482 15.69924063 23795,6737.251,91.724,361.5,356.733,0.0
55782.0,STARLINK-5826,PAYLOAD,2023-07-30 02:00:08,15.69922356,0.0003104,69.9971,98.1729,264.4879,95.5962,4.3422e-06,3.09e-06,0.0,0 STARLINK-5826,1 55782U 23028AT  23211.08343240  .00000309  00000-0  43422-5 0  9997,2 55782  69.9971  98.1729 0003104 264.4879  95.5962 15.69922356 23957,6737.256,91.724,361.212,357.03,0.0
55782.0,STARLINK-5826,PAYLOAD,2023-07-31 02:28:11,15.69908404,0.0003093,69.9972,95.306,269.9196,90.1645,-1.8511e-05,-2.436e-05,0.0,0 STARLINK-5826,1 55782U 23028AT  23212.10291366 -.00002436  00000-0 -18511-4 0  9997,2 55782  69.9972  95.3060 0003093 269.9196  90.1645 15.69908404 24110,6737.296,91.725,361.245,357.077,0.0
55782.0,STARLINK-5826,PAYLOAD,2023-07-31 17:45:42,15.69917592,0.0003703,69.9959,93.5113,270.366,89.7112,1.0839e-05,1.09e-05,0.0,0 STARLINK-5826,1 55782U 23028AT  23212.74006964  .00001090  00000-0  10839-4 0  9993,2 55782  69.9959  93.5113 0003703 270.3660  89.7112 15.69917592 24216,6737.27,91.725,361.63,356.64,0.0
55782.0,STARLINK-5826,PAYLOAD,2023-08-01 01:24:27,15.69927161,0.0003617,69.9961,92.6166,267.3311,92.747,1.942e-05,2.123e-05,0.0,0 STARLINK-5826,1 55782U 23028AT  23213.05864605  .00002123  00000-0  19420-4 0  9995,2 55782  69.9961  92.6166 0003617 267.3311  92.7470 15.69927161 24269,6737.242,91.724,361.544,356.671,0.0
55782.0,STARLINK-5826,PAYLOAD,2023-08-01 18:13:43,15.69925769,0.0003466,69.9968,90.6471,271.107,88.9729,4.7544e-06,3.59e-06,0.0,0 STARLINK-5826,1 55782U 23028AT  23213.75953597  .00000359  00000-0  47544-5 0  9999,2 55782  69.9968  90.6471 0003466 271.1070  88.9729 15.69925769 24378,6737.246,91.724,361.447,356.776,0.0
55782.0,STARLINK-5826,PAYLOAD,2023-08-02 00:20:43,15.69938604,0.0003546,69.9971,89.9298,264.2938,95.7853,1.807e-05,1.962e-05,0.0,0 STARLINK-5826,1 55782U 23028AT  23214.01439156  .00001962  00000-0  18070-4 0  9991,2 55782  69.9971  89.9298 0003546 264.2938  95.7853 15.69938604 24416,6737.21,91.723,361.464,356.686,0.0
55782.0,STARLINK-5826,PAYLOAD,2023-08-02 09:31:15,15.69919622,0.0003987,69.9957,88.8533,265.0673,95.0068,1.9567e-05,2.14e-05,0.0,0 STARLINK-5826,1 55782U 23028AT  23214.39670141  .00002140  00000-0  19567-4 0  9994,2 55782  69.9957  88.8533 0003987 265.0673  95.0068 15.69919622 24470,6737.264,91.724,361.815,356.443,0.0
55782.0,STARLINK-5826,PAYLOAD,2023-08-03 00:48:45,15.69933826,0.0003481,69.9977,87.0637,268.1135,91.9662,1.5756e-05,1.683e-05,0.0,0 STARLINK-5826,1 55782U 23028AT  23215.03386282  .00001683  00000-0  15756-4 0  9993,2 55782  69.9977  87.0637 0003481 268.1135  91.9662 15.69933826 24572,6737.223,91.724,361.434,356.743,0.0
55782.0,STARLINK-5826,PAYLOAD,2023-08-03 19:09:47,15.69928976,0.00028,69.9991,84.9136,264.2312,95.8565,-5.3011e-06,-8.5e-06,0.0,0 STARLINK-5826,1 55782U 23028AT  23215.79847197 -.00000850  00000-0 -53011-5 0  9997,2 55782  69.9991  84.9136 0002800 264.2312  95.8565 15.69928976 24694,6737.237,91.724,360.989,357.216,0.0
55782.0,STARLINK-5826,PAYLOAD,2023-08-04 01:16:47,15.69937662,0.0003346,69.9973,84.1973,273.8189,86.2624,1.7945e-05,1.947e-05,0.0,0 STARLINK-5826,1 55782U 23028AT  23216.05332858  .00001947  00000-0  17945-4 0  9991,2 55782  69.9973  84.1973 0003346 273.8189  86.2624 15.69937662 24736,6737.212,91.723,361.332,356.823,0.0
